NORAD_CAT_ID,OBJECT_NAME,OBJECT_TYPE,EPOCH,MEAN_MOTION,ECCENTRICITY,INCLINATION,RA_OF_ASC_NODE,ARG_OF_PERICENTER,MEAN_ANOMALY,BSTAR,MEAN_MOTION_DOT,MEAN_MOTION_DDOT,TLE_LINE0,TLE_LINE1,TLE_LINE2,SEMIMAJOR_AXIS,PERIOD,APOGEE,PERIGEE,DECAYED
55677.0,STARLINK-5324,PAYLOAD,2023-10-12 06:00:00,15.51207998,0.0003154,70.0009,205.4199,270.8956,186.9306,0.00061937,0.00036362,0.0,0 STARLINK-5324,1 55677U 23021BB  23285.25001157  .00036362  00000-0  61937-3 0  9998,2 55677  70.0009 205.4199 0003154 270.8956 186.9306 15.51207998 37659,6791.335,92.831,415.342,411.058,0.0
55677.0,STARLINK-5324,PAYLOAD,2023-10-12 14:00:01,15.51196565,0.0003135,70.001,204.5085,266.2357,252.5087,0.00081447,0.00047918,0.0,0 STARLINK-5324,1 55677U 23021BB  23285.58334491  .00047918  00000-0  81447-3 0  9991,2 55677  70.0010 204.5085 0003135 266.2357 252.5087 15.51196565  6040,6791.368,92.832,415.362,411.104,0.0
55677.0,STARLINK-5324,PAYLOAD,2023-10-12 22:00:01,15.51253431,0.0003156,70.0011,203.5976,267.7033,312.0011,-0.00085824,-0.00050309,0.0,0 STARLINK-5324,1 55677U 23021BB  23285.91668981 -.00050309  00000-0 -85824-3 0  9995,2 55677  70.0011 203.5976 0003156 267.7033 312.0011 15.51253431 37756,6791.202,92.828,415.211,410.924,0.0
55677.0,STARLINK-5324,PAYLOAD,2023-10-13 14:00:01,15.51198652,0.0003172,70.001,201.7749,266.9659,74.5223,0.00075307,0.00044277,0.0,0 STARLINK-5324,1 55677U 23021BB  23286.58334491  .00044277  00000-0  75307-3 0  9995,2 55677  70.0010 201.7749 0003172 266.9659  74.5223 15.51198652 37866,6791.362,92.831,415.381,411.073,0.0
55677.0,STARLINK-5324,PAYLOAD,2023-10-13 22:00:00,15.51263947,0.0003296,70.0015,200.8639,269.5389,132.8522,-0.0015,-0.00087432,0.0,0 STARLINK-5324,1 55677U 23021BB  23286.91667824 -.00087432  00000-0 -15000-2 0  9996,2 55677  70.0015 200.8639 0003296 269.5389 132.8522 15.51263947  6030,6791.172,92.828,415.275,410.798,0.0
55677.0,STARLINK-5324,PAYLOAD,2023-10-14 06:00:00,15.51189056,0.000333,70.001,199.9524,274.0111,189.3148,0.00087516,0.00051512,0.0,0 STARLINK-5324,1 55677U 23021BB  23287.25001157  .00051512  00000-0  87516-3 0  9995,2 55677  70.0010 199.9524 0003330 274.0111 189.3148 15.51189056 37964,6791.39,92.832,415.517,410.994,0.0
55677.0,STARLINK-5324,PAYLOAD,2023-10-14 14:00:01,15.51178702,0.0003354,70.001,199.0411,266.6439,257.6368,0.0017205,0.00102043,0.0,0 STARLINK-5324,1 55677U 23021BB  23287.58335648  .00102043  00000-0  17205-2 0  9999,2 55677  70.0010 199.0411 0003354 266.6439 257.6368 15.51178702  6039,6791.42,92.833,415.563,411.008,0.0
55677.0,STARLINK-5324,PAYLOAD,2023-10-14 22:00:00,15.51254826,0.0003358,70.0013,198.1298,267.7825,317.3194,-0.00044009,-0.00025959,0.0,0 STARLINK-5324,1 55677U 23021BB  23287.91667824 -.00025959  00000-0 -44009-3 0  9995,2 55677  70.0013 198.1298 0003358 267.7825 317.3194 15.51254826 38061,6791.198,92.828,415.344,410.783,0.0
55677.0,STARLINK-5324,PAYLOAD,2023-10-15 10:57:40,15.51229264,0.0003193,69.9981,196.654,271.6698,88.4122,2.1841e-05,1.118e-05,0.0,0 STARLINK-5324,1 55677U 23021BB  23288.45672396  .00001118  00000-0  21841-4 0  9994,2 55677  69.9981 196.6540 0003193 271.6698  88.4122 15.51229264 38452,6791.273,92.83,415.306,410.969,0.0
55677.0,STARLINK-5324,PAYLOAD,2023-10-15 20:15:10,15.50959599,0.001018,69.9977,195.5963,315.5505,44.4863,-0.00059118,-0.00034488,0.0,0 STARLINK-5324,1 55677U 23021BB  23288.84387657 -.00034488  00000-0 -59118-3 0  9995,2 55677  69.9977 195.5963 0010180 315.5505  44.4863 15.50959599 38211,6792.06,92.846,420.839,407.011,0.0
55677.0,STARLINK-5324,PAYLOAD,2023-10-15 21:48:03,15.50944929,0.0003681,69.9985,195.4203,285.2299,74.848,-0.00060831,-0.00035388,0.0,0 STARLINK-5324,1 55677U 23021BB  23288.90837355 -.00035388  00000-0 -60831-3 0  9991,2 55677  69.9985 195.4203 0003681 285.2299  74.8480 15.50944929 38524,6792.103,92.847,416.468,411.468,0.0
55677.0,STARLINK-5324,PAYLOAD,2023-10-16 03:59:55,15.5064305,0.0003409,69.9982,194.7153,269.7605,90.319,-0.0012735,-0.00072773,0.0,0 STARLINK-5324,1 55677U 23021BB  23289.16661801 -.00072773  00000-0 -12735-2 0  9999,2 55677  69.9982 194.7153 0003409 269.7605  90.3190 15.50643050 38266,6792.984,92.865,417.165,412.534,0.0
55677.0,STARLINK-5324,PAYLOAD,2023-10-16 22:35:33,15.50028978,0.0005246,69.9977,192.6026,263.9421,96.1166,-0.0022791,-0.00126509,0.0,0 STARLINK-5324,1 55677U 23021BB  23289.94135425 -.00126509  00000-0 -22791-2 0  9993,2 55677  69.9977 192.6026 0005246 263.9421  96.1166 15.50028978 38688,6794.778,92.901,420.208,413.079,0.0
55677.0,STARLINK-5324,PAYLOAD,2023-10-18 14:00:01,15.45313059,0.000336,69.9996,188.1422,260.8083,242.6369,-0.019308,-0.00842966,0.0,0 STARLINK-5324,1 55677U 23021BB  23291.58334491 -.00842966  00000-0 -19308-1 0  9991,2 55677  69.9996 188.1422 0003360 260.8083 242.6369 15.45313059 38633,6808.595,93.185,432.748,428.173,0.0
55677.0,STARLINK-5324,PAYLOAD,2023-10-18 22:00:00,15.4470654,0.0003388,69.9996,187.2396,262.5751,294.332,-0.02166,-0.00931444,0.0,0 STARLINK-5324,1 55677U 23021BB  23291.91667824 -.00931444  00000-0 -21660-1 0  9991,2 55677  69.9996 187.2396 0003388 262.5751 294.3320 15.44706540  5998,6810.377,93.222,434.55,429.935,0.0
55677.0,STARLINK-5324,PAYLOAD,2023-10-19 06:00:00,15.44064366,0.0003327,69.999,186.3376,264.6726,344.9219,-0.022474,-0.00944362,0.0,0 STARLINK-5324,1 55677U 23021BB  23292.25001157 -.00944362  00000-0 -22474-1 0  9997,2 55677  69.9990 186.3376 0003327 264.6726 344.9219 15.44064366 38738,6812.266,93.26,436.397,431.864,0.0
55677.0,STARLINK-5324,PAYLOAD,2023-10-19 14:00:01,15.43356465,0.0003479,69.9994,185.4367,258.7054,42.815,-0.020584,-0.008409,0.0,0 STARLINK-5324,1 55677U 23021BB  23292.58334491 -.00840900  00000-0 -20584-1 0  9996,2 55677  69.9994 185.4367 0003479 258.7054  42.8150 15.43356465  6048,6814.349,93.303,438.584,433.843,0.0
55677.0,STARLINK-5324,PAYLOAD,2023-10-20 00:00:00,15.42573643,0.0003389,69.9994,184.3118,265.7946,189.507,-0.022742,-0.00911429,0.0,0 STARLINK-5324,1 55677U 23021BB  23293.00001157 -.00911429  00000-0 -22742-1 0  9997,2 55677  69.9994 184.3118 0003389 265.7946 189.5070 15.42573643  6035,6816.654,93.35,440.829,436.209,0.0
55677.0,STARLINK-5324,PAYLOAD,2023-10-20 06:00:02,15.42100395,0.0003453,69.999,183.6372,267.1576,135.8859,-0.023709,-0.00933293,0.0,0 STARLINK-5324,1 55677U 23021BB  23293.25002315 -.00933293  00000-0 -23709-1 0  9998,2 55677  69.9990 183.6372 0003453 267.1576 135.8859 15.42100395 38890,6818.048,93.379,442.268,437.559,0.0
55677.0,STARLINK-5324,PAYLOAD,2023-10-20 14:00:01,15.41406122,0.0003423,69.9992,182.7389,262.107,190.4461,-0.0223,-0.00863299,0.0,0 STARLINK-5324,1 55677U 23021BB  23293.58334491 -.00863299  00000-0 -22300-1 0  9991,2 55677  69.9992 182.7389 0003423 262.1070 190.4461 15.41406122  5987,6820.095,93.421,444.295,439.626,0.0
55677.0,STARLINK-5324,PAYLOAD,2023-10-20 22:00:00,15.40793149,0.0003348,69.9995,181.8413,266.245,235.0806,-0.024741,-0.00932347,0.0,0 STARLINK-5324,1 55677U 23021BB  23293.91667824 -.00932347  00000-0 -24741-1 0  9999,2 55677  69.9995 181.8413 0003348 266.2450 235.0806 15.40793149  6045,6821.904,93.458,446.053,441.485,0.0
55677.0,STARLINK-5324,PAYLOAD,2023-10-21 14:00:01,15.39450174,0.0003326,69.9992,180.0489,260.2515,336.2961,-0.023784,-0.00862923,0.0,0 STARLINK-5324,1 55677U 23021BB  23294.58334491 -.00862923  00000-0 -23784-1 0  9992,2 55677  69.9992 180.0489 0003326 260.2515 336.2961 15.39450174 39091,6825.871,93.54,450.006,445.466,0.0
55677.0,STARLINK-5324,PAYLOAD,2023-10-22 00:00:00,15.38659277,0.0003428,69.9995,178.9304,267.8326,116.6317,-0.025802,-0.00908254,0.0,0 STARLINK-5324,1 55677U 23021BB  23295.00001157 -.00908254  00000-0 -25802-1 0  9991,2 55677  69.9995 178.9304 0003428 267.8326 116.6317 15.38659277  6062,6828.21,93.588,452.416,447.734,0.0
55677.0,STARLINK-5324,PAYLOAD,2023-10-22 06:00:00,15.38189859,0.0003339,69.9992,178.26,266.4935,62.1282,-0.027228,-0.00940893,0.0,0 STARLINK-5324,1 55677U 23021BB  23295.25001157 -.00940893  00000-0 -27228-1 0  9997,2 55677  69.9992 178.2600 0003339 266.4935  62.1282 15.38189859 39205,6829.599,93.617,453.745,449.184,0.0
55677.0,STARLINK-5324,PAYLOAD,2023-10-22 14:00:01,15.37491427,0.0003404,69.9994,177.3671,261.8296,111.6728,-0.02522,-0.00858566,0.0,0 STARLINK-5324,1 55677U 23021BB  23295.58334491 -.00858566  00000-0 -25220-1 0  9998,2 55677  69.9994 177.3671 0003404 261.8296 111.6728 15.37491427  6055,6831.667,93.659,455.858,451.207,0.0
55677.0,STARLINK-5324,PAYLOAD,2023-10-23 00:00:02,15.36696205,0.0003227,69.9995,176.2521,267.996,250.555,-0.027162,-0.00897743,0.0,0 STARLINK-5324,1 55677U 23021BB  23296.00002315 -.00897743  00000-0 -27162-1 0  9990,2 55677  69.9995 176.2521 0003227 267.9960 250.5550 15.36696205  6063,6834.024,93.708,458.094,453.684,0.0
55677.0,STARLINK-5324,PAYLOAD,2023-10-23 06:00:00,15.36233299,0.000329,69.9993,175.5836,269.3124,191.57,-0.029006,-0.00940622,0.0,0 STARLINK-5324,1 55677U 23021BB  23296.25001157 -.00940622  00000-0 -29006-1 0  9994,2 55677  69.9993 175.5836 0003290 269.3124 191.5700 15.36233299 39359,6835.397,93.736,459.511,455.013,0.0
55677.0,STARLINK-5324,PAYLOAD,2023-10-23 22:00:00,15.34912536,0.0003255,69.9997,173.804,266.2675,278.8845,-0.029454,-0.00917475,0.0,0 STARLINK-5324,1 55677U 23021BB  23296.91667824 -.00917475  00000-0 -29454-1 0  9993,2 55677  69.9997 173.8040 0003255 266.2675 278.8845 15.34912536  5931,6839.317,93.816,463.408,458.956,0.0
55677.0,STARLINK-5324,PAYLOAD,2023-10-24 06:00:02,15.34279782,0.0003231,69.9996,172.9152,266.1836,319.9815,-0.031156,-0.00948268,0.0,0 STARLINK-5324,1 55677U 23021BB  23297.25002315 -.00948268  00000-0 -31156-1 0  9995,2 55677  69.9996 172.9152 0003231 266.1836 319.9815 15.34279782 39509,6841.198,93.855,465.273,460.852,0.0
55677.0,STARLINK-5324,PAYLOAD,2023-10-24 14:00:01,15.33584595,0.000333,69.9999,172.0275,259.9007,6.3847,-0.028928,-0.00867889,0.0,0 STARLINK-5324,1 55677U 23021BB  23297.58334491 -.00867889  00000-0 -28928-1 0  9996,2 55677  69.9999 172.0275 0003330 259.9007   6.3847 15.33584595  6044,6843.265,93.898,467.409,462.851,0.0
